ONEWEB-0363             
1 49289U 21090L   24256.44402737 -.00000557  00000+0 -14021-2 0  9992
2 49289  87.9228  42.2849 0001628  82.0085 278.1233 13.20775110146294
ONEWEB-0364             
1 49290U 21090M   24255.87585495  .00000002  00000+0 -26294-4 0  9994
2 49290  87.9230  42.4245 0001603  93.7972 266.3344 13.20772733146524
ONEWEB-0365             
1 49291U 21090N   24256.48775252  .00000029  00000+0  40823-4 0  9997
2 49291  87.9089  72.8014 0001687  93.1945 266.9380 13.19720025142947
ONEWEB-0366             
1 49292U 21090P   24255.86002862 -.00000151  00000+0 -44084-3 0  9999
2 49292  87.8943  57.6553 0001677  93.4757 266.6564 13.14500996143049
ONEWEB-0367             
1 49293U 21090Q   24255.91215164  .00000098  00000+0  20973-3 0  9996
2 49293  87.9229  42.3855 0001588 100.6871 259.4441 13.20780669144918
ONEWEB-0368             
1 49294U 21090R   24255.88532463  .00000049  00000+0  88229-4 0  9992
2 49294  87.9229  42.4219 0000797 108.0400 252.0820 13.20773002146066
ONEWEB-0369             
1 49295U 21090S   24256.48301795  .00004583  00000+0  11413-1 0  9997
2 49295  87.9095  72.8113 0001860 101.0266 259.1076 13.19700732142934
ONEWEB-0370             
1 49296U 21090T   24255.69435543  .00000144  00000+0  32173-3 0  9996
2 49296  87.9228  42.4335 0002105  94.0997 266.0377 13.20773040144923
